STARLINK-37517          
1 69254U 26117S   26167.26261607  .00187302  00000+0  88297-3 0  9992
2 69254  53.1575 247.8473 0000845  42.7213 317.3876 15.82042789  2839
STARLINK-37378          
1 69255U 26117T   26167.26228373  .00199452  00000+0  93831-3 0  9995
2 69255  53.1578 247.8446 0001389  34.0935 326.0177 15.82051939  2830
STARLINK-37396          
1 69256U 26117U   26167.25983421  .00243831  00000+0  11420-2 0  9991
2 69256  53.1572 247.8268 0000937  38.8485 321.2606 15.82021883  2836
STARLINK-37508          
1 69257U 26117V   26167.26133010  .00192608  00000+0  95471-3 0  9998
2 69257  53.1579 247.8364 0001519  26.2805 333.8294 15.80942367  2834
STARLINK-37276          
1 69258U 26117W   26167.23437858  .00171156  00000+0  85248-3 0  9999
2 69258  53.1577 247.6523 0001399  55.8874 304.2282 15.80901838  2835
STARLINK-37518          
1 69259U 26117X   26167.23563113  .00120437  00000+0  60692-3 0  9996
2 69259  53.1576 247.6623 0001208  92.9494 267.1667 15.80812965  2831
STARLINK-37478          
1 69260U 26117Y   26167.23583273  .00186627  00000+0  92773-3 0  9995
2 69260  53.1580 247.6637 0001011  64.0930 296.0197 15.80897626  2836
STARLINK-37506          
1 69261U 26117Z   26167.23534364  .00167398  00000+0  83399-3 0  9991
2 69261  53.1573 247.6589 0000930  84.2561 275.8568 15.80907490  2836
STARLINK-37503          
1 69262U 26117AA  26167.23508647  .00164024  00000+0  81811-3 0  9997
2 69262  53.1579 247.6572 0001215  56.4445 303.6694 15.80893179  2832
STARLINK-37502          
1 69263U 26117AB  26167.23457204  .00174384  00000+0  86763-3 0  9991
2 69263  53.1580 247.6535 0001461  56.7524 303.3639 15.80915111  2835
STARLINK-37486          
1 69264U 26117AC  26167.23335327  .00192527  00000+0  95614-3 0  9997
2 69264  53.1576 247.6447 0001011  90.0012 270.1126 15.80901225  2830
STARLINK-37435          
1 69265U 26117AD  26167.23484182  .00228523  00000+0  11300-2 0  9997
2 69265  53.1576 247.6545 0000891  58.1676 301.9433 15.80892412  2837
STARLINK-37464          
1 69266U 26117AE  26167.23106070  .00253602  00000+0  11850-2 0  9991
2 69266  53.1571 247.6283 0001390  41.6771 318.4358 15.82045485  2831
KUIPER-00282            
1 69267U 26118A   26167.17999388 -.00022278  00000+0 -64628-3 0  9995
2 69267  51.8589  58.4174 0012419 174.5847 185.5275 15.34462439  3827
KUIPER-00383            
1 69268U 26118B   26167.17706062 -.00005627  00000+0 -15448-3 0  9996
2 69268  51.8593  58.3992 0010898 180.0189 180.0798 15.34471068  3828
KUIPER-00527            
1 69269U 26118C   26167.17268910  .00009876  00000+0  29745-3 0  9995
2 69269  51.8619  58.3726 0009767 173.3574 186.7543 15.34937955  3822
KUIPER-00562            
1 69270U 26118D   26167.20699735  .00020924  00000+0  54892-3 0  9992
2 69270  51.8722  57.8598 0001782 109.5354 250.5826 15.38609508  3835
KUIPER-00570            
1 69271U 26118E   26167.17485380  .00011422  00000+0  34506-3 0  9991
2 69271  51.8577  58.3840 0011803 181.6976 178.3971 15.34652247  3827
KUIPER-00572            
1 69272U 26118F   26167.16021900  .00023152  00000+0  63817-3 0  9995
2 69272  51.8686  58.2985 0007073 167.3346 192.7819 15.36994897  3827
KUIPER-00581            
1 69273U 26118G   26167.16390703  .00018613  00000+0  52136-3 0  9994
2 69273  51.8665  58.3205 0008818 171.3739 188.7401 15.36626720  3919
KUIPER-00584            
1 69274U 26118H   26167.17703296  .00012288  00000+0  37125-3 0  9994
2 69274  51.8605  58.4000 0011919 184.1546 175.9342 15.34572875  3823
KUIPER-00587            
1 69275U 26118J   26167.22832596  .00019741  00000+0  55154-3 0  9990
2 69275  51.8637  57.9999 0008139 174.6493 185.4582 15.36670480  3831
KUIPER-00590            
1 69276U 26118K   26167.15029872  .00020045  00000+0  53855-3 0  9993
2 69276  51.8696  58.2340 0004059 153.8401 206.2792 15.37897632  3821
KUIPER-00592            
1 69277U 26118L   26167.21287385  .00019733  00000+0  52730-3 0  9999
2 69277  51.8714  57.9030 0003790 133.9533 226.1767 15.38076391  3837
KUIPER-00593            
1 69278U 26118M   26167.21356479  .00019808  00000+0  52998-3 0  9990
2 69278  51.8720  57.9066 0003833 151.1799 208.9401 15.38033968  3890
KUIPER-00594            
1 69279U 26118N   26167.20585091  .00020253  00000+0  53111-3 0  9998
2 69279  51.8722  57.8559 0001039  79.2878 280.8226 15.38643363  3837
KUIPER-00595            
1 69280U 26118P   26167.20797317  .00021407  00000+0  56248-3 0  9992
2 69280  51.8716  57.8715 0001757 134.5126 225.6005 15.38545104  3863
KUIPER-00596            
1 69281U 26118Q   26167.17562759  .00030345  00000+0  89475-3 0  9998
2 69281  51.8555  58.3853 0012620 181.6617 178.4328 15.34680884  3823
KUIPER-00597            
1 69282U 26118R   26167.15856028  .00019990  00000+0  55233-3 0  9990
2 69282  51.8663  58.2867 0006901 168.2514 191.8635 15.37017171  3826
KUIPER-00599            
1 69283U 26118S   26167.22089429  .00020410  00000+0  55732-3 0  9995
2 69283  51.8701  57.9555 0006146 160.6120 199.5101 15.37374096  3836
